NORAD_CAT_ID,OBJECT_NAME,OBJECT_TYPE,EPOCH,MEAN_MOTION,ECCENTRICITY,INCLINATION,RA_OF_ASC_NODE,ARG_OF_PERICENTER,MEAN_ANOMALY,BSTAR,MEAN_MOTION_DOT,MEAN_MOTION_DDOT,TLE_LINE0,TLE_LINE1,TLE_LINE2,SEMIMAJOR_AXIS,PERIOD,APOGEE,PERIGEE,DECAYED
53144.0,STARLINK-4100,PAYLOAD,2024-04-26 09:06:59,15.08847247,0.0001104,53.2186,357.1313,86.0282,274.0836,-5.4337e-05,-1.153e-05,0.0,0 STARLINK-4100,1 53144U 22083N   24117.37985063 -.00001153  00000-0 -54337-4 0  9996,2 53144  53.2186 357.1313 0001104  86.0282 274.0836 15.08847247 98844,6917.858,95.437,540.487,538.96,0.0
53144.0,STARLINK-4100,PAYLOAD,2024-04-26 23:25:26,15.08859765,0.0001337,53.2191,354.4577,78.1351,281.9791,0.00015435,2.171e-05,0.0,0 STARLINK-4100,1 53144U 22083N   24117.97600110  .00002171  00000-0  15435-3 0  9993,2 53144  53.2191 354.4577 0001337  78.1351 281.9791 15.08859765 98934,6917.82,95.436,540.61,538.76,0.0
53144.0,STARLINK-4100,PAYLOAD,2024-04-27 21:40:52,15.08836149,0.0001057,53.2186,350.2943,80.9359,279.1753,-7.7438e-05,-1.52e-05,0.0,0 STARLINK-4100,1 53144U 22083N   24118.90338479 -.00001520  00000-0 -77438-4 0  9994,2 53144  53.2186 350.2943 0001057  80.9359 279.1753 15.08836149 99071,6917.892,95.438,540.488,539.026,0.0
53144.0,STARLINK-4100,PAYLOAD,2024-04-28 00:51:38,15.08839139,0.0001513,53.2198,349.6975,78.9063,281.2099,-4.7665e-06,-3.64e-06,0.0,0 STARLINK-4100,1 53144U 22083N   24119.03586100 -.00000364  00000-0 -47665-5 0  9990,2 53144  53.2198 349.6975 0001513  78.9063 281.2099 15.08839139 99098,6917.883,95.438,540.795,538.701,0.0
53144.0,STARLINK-4100,PAYLOAD,2024-04-28 21:31:38,15.08843657,0.0001564,53.2193,345.8319,91.031,269.0861,9.6769e-05,1.253e-05,0.0,0 STARLINK-4100,1 53144U 22083N   24119.89697612  .00001253  00000-0  96769-4 0  9999,2 53144  53.2193 345.8319 0001564  91.0310 269.0861 15.08843657 98595,6917.869,95.437,540.816,538.652,0.0
53144.0,STARLINK-4100,PAYLOAD,2024-04-29 00:42:24,15.088525,0.0001448,53.2188,345.2367,95.0957,265.02,0.0,-2.88e-06,0.0,0 STARLINK-4100,1 53144U 22083N   24120.02945241 -.00000288  00000-0  00000+0 0  9996,2 53144  53.2188 345.2367 0001448  95.0957 265.0200 15.08852500 99241,6917.842,95.437,540.709,538.705,0.0
53144.0,STARLINK-4100,PAYLOAD,2024-04-29 08:39:20,15.0884861,0.0001376,53.2183,343.7498,95.762,264.3529,-3.6135e-05,-8.63e-06,0.0,0 STARLINK-4100,1 53144U 22083N   24120.36065219 -.00000863  00000-0 -36135-4 0  9994,2 53144  53.2183 343.7498 0001376  95.7620 264.3529 15.08848610 98666,6917.854,95.437,540.671,538.767,0.0
53144.0,STARLINK-4100,PAYLOAD,2024-04-29 21:22:26,15.08836371,0.0001459,53.2176,341.3739,83.5408,276.575,6.4784e-05,7.43e-06,0.0,0 STARLINK-4100,1 53144U 22083N   24120.89058326  .00000743  00000-0  64784-4 0  9999,2 53144  53.2176 341.3739 0001459  83.5408 276.5750 15.08836371 99372,6917.891,95.438,540.766,538.747,0.0
53144.0,STARLINK-4100,PAYLOAD,2024-04-30 19:37:49,15.08842868,0.0001528,53.2189,337.2119,97.3079,262.8087,3.282e-05,2.34e-06,0.0,0 STARLINK-4100,1 53144U 22083N   24121.81793958  .00000234  00000-0  32820-4 0  9990,2 53144  53.2189 337.2119 0001528  97.3079 262.8087 15.08842868 98880,6917.872,95.437,540.794,538.68,0.0
53144.0,STARLINK-4100,PAYLOAD,2024-05-01 00:23:59,15.0884735,0.0001402,53.2182,336.3201,84.9602,275.155,5.5206e-05,5.91e-06,0.0,0 STARLINK-4100,1 53144U 22083N   24122.01665584  .00000591  00000-0  55206-4 0  9995,2 53144  53.2182 336.3201 0001402  84.9602 275.1550 15.08847350 99547,6917.858,95.437,540.693,538.753,0.0
53144.0,STARLINK-4100,PAYLOAD,2024-05-01 06:45:31,15.08845979,0.00014,53.2177,335.1305,81.8083,278.3068,-1.0881e-06,-3.05e-06,0.0,0 STARLINK-4100,1 53144U 22083N   24122.28161748 -.00000305  00000-0 -10881-5 0  9993,2 53144  53.2177 335.1305 0001400  81.8083 278.3068 15.08845979 98958,6917.862,95.437,540.696,538.759,0.0
53144.0,STARLINK-4100,PAYLOAD,2024-05-02 12:57:51,15.08846565,0.0002369,53.2171,329.4795,77.9675,282.1583,5.2317e-05,5.44e-06,0.0,0 STARLINK-4100,1 53144U 22083N   24123.54017816  .00000544  00000-0  52317-4 0  9991,2 53144  53.2171 329.4795 0002369  77.9675 282.1583 15.08846565 99777,6917.86,95.437,541.364,538.086,0.0
53144.0,STARLINK-4100,PAYLOAD,2024-05-02 20:54:47,15.08834733,0.0001472,53.2178,327.9966,95.6399,264.4761,-4.6166e-05,-1.023e-05,0.0,0 STARLINK-4100,1 53144U 22083N   24123.87138481 -.00001023  00000-0 -46166-4 0  9999,2 53144  53.2178 327.9966 0001472  95.6399 264.4761 15.08834733 99822,6917.896,95.438,540.78,538.743,0.0
53144.0,STARLINK-4100,PAYLOAD,2024-05-03 06:27:06,15.08840407,0.0001434,53.2178,326.2114,94.4876,265.628,-1.1022e-05,-4.63e-06,0.0,0 STARLINK-4100,1 53144U 22083N   24124.26881955 -.00000463  00000-0 -11022-4 0  9994,2 53144  53.2178 326.2114 0001434  94.4876 265.6280 15.08840407 99884,6917.879,95.438,540.736,538.752,0.0
53144.0,STARLINK-4100,PAYLOAD,2024-05-03 20:45:32,15.08847585,0.000132,53.2152,323.5334,90.108,270.0063,0.00022709,3.329e-05,0.0,0 STARLINK-4100,1 53144U 22083N   24124.86496348  .00003329  00000-0  22709-3 0  9993,2 53144  53.2152 323.5334 0001320  90.1080 270.0063 15.08847585 99977,6917.857,95.437,540.635,538.809,0.0
53144.0,STARLINK-4100,PAYLOAD,2024-05-03 22:20:55,15.08851237,0.0001366,53.2164,323.2374,99.4739,260.6408,0.00026396,3.917e-05,0.0,0 STARLINK-4100,1 53144U 22083N   24124.93120016  .00003917  00000-0  26396-3 0  9996,2 53144  53.2164 323.2374 0001366  99.4739 260.6408 15.08851237 99353,6917.846,95.437,540.656,538.766,0.0
53144.0,STARLINK-4100,PAYLOAD,2024-05-04 12:39:25,15.08838844,0.0002155,53.2155,320.5606,83.6382,276.4855,0.00016266,2.301e-05,0.0,0 STARLINK-4100,1 53144U 22083N   24125.52737684  .00002301  00000-0  16266-3 0  9998,2 53144  53.2155 320.5606 0002155  83.6382 276.4855 15.08838844100079,6917.884,95.438,541.24,538.258,0.0
53144.0,STARLINK-4100,PAYLOAD,2024-05-04 20:36:21,15.088313,0.0001425,53.2162,319.0734,84.85,275.2655,-2.2472e-05,-6.45e-06,0.0,0 STARLINK-4100,1 53144U 22083N   24125.85858181 -.00000645  00000-0 -22472-4 0  9998,2 53144  53.2162 319.0734 0001425  84.8500 275.2655 15.08831300100127,6917.907,95.438,540.758,538.786,0.0
53144.0,STARLINK-4100,PAYLOAD,2024-05-05 12:30:12,15.08842358,0.0001494,53.217,316.0994,84.4625,275.6538,3.0366e-05,1.95e-06,0.0,0 STARLINK-4100,1 53144U 22083N   24126.52097879  .00000195  00000-0  30366-4 0  9991,2 53144  53.2170 316.0994 0001494  84.4625 275.6538 15.08842358100221,6917.873,95.437,540.772,538.705,0.0
53144.0,STARLINK-4100,PAYLOAD,2024-05-05 18:51:44,15.08851457,0.0001481,53.2166,314.9103,84.6002,275.5159,0.00020866,3.035e-05,0.0,0 STARLINK-4100,1 53144U 22083N   24126.78593517  .00003035  00000-0  20866-3 0  9998,2 53144  53.2166 314.9103 0001481  84.6002 275.5159 15.08851457 99632,6917.845,95.437,540.735,538.686,0.0
53144.0,STARLINK-4100,PAYLOAD,2024-05-06 12:20:59,15.08844753,0.0001537,53.2159,311.6403,79.5918,280.5247,0.00041,6.244e-05,0.0,0 STARLINK-4100,1 53144U 22083N   24127.51458122  .00006244  00000-0  41000-3 0  9990,2 53144  53.2159 311.6403 0001537  79.5918 280.5247 15.08844753100371,6917.866,95.437,540.794,538.668,0.0
53144.0,STARLINK-4100,PAYLOAD,2024-05-06 18:42:32,15.08851126,0.0001482,53.2174,310.4505,85.5717,274.5444,0.00046013,7.045e-05,0.0,0 STARLINK-4100,1 53144U 22083N   24127.77953846  .00007045  00000-0  46013-3 0  9990,2 53144  53.2174 310.4505 0001482  85.5717 274.5444 15.08851126 99787,6917.846,95.437,540.737,538.686,0.0
53144.0,STARLINK-4100,PAYLOAD,2024-05-07 12:11:47,15.08840571,0.0001535,53.217,307.1783,88.4699,271.6468,0.00011371,1.522e-05,0.0,0 STARLINK-4100,1 53144U 22083N   24128.50818288  .00001522  00000-0  11371-3 0  9995,2 53144  53.2170 307.1783 0001535  88.4699 271.6468 15.08840571100525,6917.879,95.438,540.806,538.682,0.0
53144.0,STARLINK-4100,PAYLOAD,2024-05-07 18:33:19,15.08835443,0.0001399,53.2156,305.9883,85.6498,274.4654,5.1335e-06,-2.06e-06,0.0,0 STARLINK-4100,1 53144U 22083N   24128.77314577 -.00000206  00000-0  51335-5 0  9991,2 53144  53.2156 305.9883 0001399  85.6498 274.4654 15.08835443 99932,6917.894,95.438,540.727,538.792,0.0
53144.0,STARLINK-4100,PAYLOAD,2024-05-08 12:02:34,15.08838213,0.0001334,53.2154,302.7153,87.0572,273.0572,8.0046e-05,9.86e-06,0.0,0 STARLINK-4100,1 53144U 22083N   24129.50178646  .00000986  00000-0  80046-4 0  9992,2 53144  53.2154 302.7153 0001334  87.0572 273.0572 15.08838213100040,6917.886,95.438,540.674,538.828,0.0
53144.0,STARLINK-4100,PAYLOAD,2024-05-08 18:24:06,15.08846947,0.0001332,53.2157,301.5267,85.416,274.6984,0.00021301,3.104e-05,0.0,0 STARLINK-4100,1 53144U 22083N   24129.76674246  .00003104  00000-0  21301-3 0  9990,2 53144  53.2157 301.5267 0001332  85.4160 274.6984 15.08846947100710,6917.859,95.437,540.646,538.803,0.0
53144.0,STARLINK-4100,PAYLOAD,2024-05-09 11:53:21,15.08844243,0.0001737,53.2163,298.257,78.2853,281.8334,0.00028168,4.198e-05,0.0,0 STARLINK-4100,1 53144U 22083N   24130.49538654  .00004198  00000-0  28168-3 0  9996,2 53144  53.2163 298.2570 0001737  78.2853 281.8334 15.08844243100822,6917.867,95.437,540.934,538.531,0.0
53144.0,STARLINK-4100,PAYLOAD,2024-05-09 15:04:07,15.08840877,0.0001434,53.2182,297.6637,88.9548,271.1609,0.00018392,2.64e-05,0.0,0 STARLINK-4100,1 53144U 22083N   24130.62786644  .00002640  00000-0  18392-3 0  9993,2 53144  53.2182 297.6637 0001434  88.9548 271.1609 15.08840877100212,6917.878,95.437,540.735,538.751,0.0
53144.0,STARLINK-4100,PAYLOAD,2024-05-09 18:14:53,15.08847197,0.0001367,53.2171,297.0686,79.697,280.4177,0.00030543,4.577e-05,0.0,0 STARLINK-4100,1 53144U 22083N   24130.76034514  .00004577  00000-0  30543-3 0  9993,2 53144  53.2171 297.0686 0001367  79.6970 280.4177 15.08847197100236,6917.858,95.437,540.669,538.778,0.0
53144.0,STARLINK-4100,PAYLOAD,2024-05-10 03:47:12,15.08841568,0.0001173,53.2157,295.2831,76.0168,284.0954,0.00011547,1.55e-05,0.0,0 STARLINK-4100,1 53144U 22083N   24131.15778596  .00001550  00000-0  11547-3 0  9993,2 53144  53.2157 295.2831 0001173  76.0168 284.0954 15.08841568100922,6917.876,95.437,540.552,538.929,0.0
